[{"OBJECT_NAME":"ISS (ZARYA)","OBJECT_ID":"1998-067A","EPOCH":"2026-03-24T19:24:53.959968","MEAN_MOTION":15.48525391,"ECCENTRICITY":0.00062584,"INCLINATION":51.6344,"RA_OF_ASC_NODE":357.6177,"ARG_OF_PERICENTER":228.0573,"MEAN_ANOMALY":131.9883,"EPHEMERIS_TYPE":0,"CLASSIFICATION_TYPE":"U","NORAD_CAT_ID":25544,"ELEMENT_SET_NO":999,"REV_AT_EPOCH":55867,"BSTAR":0.00018679893,"MEAN_MOTION_DOT":9.69e-5,"MEAN_MOTION_DDOT":0},{"OBJECT_NAME":"POISK","OBJECT_ID":"2009-060A","EPOCH":"2026-03-24T19:24:53.959968","MEAN_MOTION":15.48525391,"ECCENTRICITY":0.00062584,"INCLINATION":51.6344,"RA_OF_ASC_NODE":357.6177,"ARG_OF_PERICENTER":228.0573,"MEAN_ANOMALY":131.9883,"EPHEMERIS_TYPE":0,"CLASSIFICATION_TYPE":"U","NORAD_CAT_ID":36086,"ELEMENT_SET_NO":999,"REV_AT_EPOCH":55743,"BSTAR":0.00018679893,"MEAN_MOTION_DOT":9.69e-5,"MEAN_MOTION_DDOT":0},{"OBJECT_NAME":"CSS (TIANHE)","OBJECT_ID":"2021-035A","EPOCH":"2026-03-24T21:03:54.845568","MEAN_MOTION":15.61442402,"ECCENTRICITY":0.00045652,"INCLINATION":41.4665,"RA_OF_ASC_NODE":115.6921,"ARG_OF_PERICENTER":13.6781,"MEAN_ANOMALY":346.4181,"EPHEMERIS_TYPE":0,"CLASSIFICATION_TYPE":"U","NORAD_CAT_ID":48274,"ELEMENT_SET_NO":999,"REV_AT_EPOCH":27998,"BSTAR":0.00022458379,"MEAN_MOTION_DOT":0.00019459,"MEAN_MOTION_DDOT":0},{"OBJECT_NAME":"ISS (NAUKA)","OBJECT_ID":"2021-066A","EPOCH":"2026-03-24T19:24:53.959968","MEAN_MOTION":15.48525391,"ECCENTRICITY":0.00062584,"INCLINATION":51.6344,"RA_OF_ASC_NODE":357.6177,"ARG_OF_PERICENTER":228.0573,"MEAN_ANOMALY":131.9883,"EPHEMERIS_TYPE":0,"CLASSIFICATION_TYPE":"U","NORAD_CAT_ID":49044,"ELEMENT_SET_NO":999,"REV_AT_EPOCH":55747,"BSTAR":0.00018679893,"MEAN_MOTION_DOT":9.69e-5,"MEAN_MOTION_DDOT":0},{"OBJECT_NAME":"FREGAT DEB","OBJECT_ID":"2011-037PF","EPOCH":"2026-03-24T12:14:32.504352","MEAN_MOTION":12.40658271,"ECCENTRICITY":0.09628516,"INCLINATION":51.6508,"RA_OF_ASC_NODE":256.2575,"ARG_OF_PERICENTER":93.4027,"MEAN_ANOMALY":277.7281,"EPHEMERIS_TYPE":0,"CLASSIFICATION_TYPE":"U","NORAD_CAT_ID":49271,"ELEMENT_SET_NO":999,"REV_AT_EPOCH":21453,"BSTAR":0.016085534,"MEAN_MOTION_DOT":0.00011351,"MEAN_MOTION_DDOT":0},{"OBJECT_NAME":"CSS (WENTIAN)","OBJECT_ID":"2022-085A","EPOCH":"2026-03-24T21:03:54.845568","MEAN_MOTION":15.61442402,"ECCENTRICITY":0.00045652,"INCLINATION":41.4665,"RA_OF_ASC_NODE":115.6921,"ARG_OF_PERICENTER":13.6781,"MEAN_ANOMALY":346.4181,"EPHEMERIS_TYPE":0,"CLASSIFICATION_TYPE":"U","NORAD_CAT_ID":53239,"ELEMENT_SET_NO":999,"REV_AT_EPOCH":27910,"BSTAR":0.00022458379,"MEAN_MOTION_DOT":0.00019459,"MEAN_MOTION_DDOT":0},{"OBJECT_NAME":"CSS (MENGTIAN)","OBJECT_ID":"2022-143A","EPOCH":"2026-03-24T21:03:54.845568","MEAN_MOTION":15.61442402,"ECCENTRICITY":0.00045652,"INCLINATION":41.4665,"RA_OF_ASC_NODE":115.6921,"ARG_OF_PERICENTER":13.6781,"MEAN_ANOMALY":346.4181,"EPHEMERIS_TYPE":0,"CLASSIFICATION_TYPE":"U","NORAD_CAT_ID":54216,"ELEMENT_SET_NO":999,"REV_AT_EPOCH":27910,"BSTAR":0.00022458379,"MEAN_MOTION_DOT":0.00019459,"MEAN_MOTION_DDOT":0},{"OBJECT_NAME":"TIANZHOU-9","OBJECT_ID":"2025-149A","EPOCH":"2026-03-24T21:03:54.845568","MEAN_MOTION":15.61442402,"ECCENTRICITY":0.00045652,"INCLINATION":41.4665,"RA_OF_ASC_NODE":115.6921,"ARG_OF_PERICENTER":13.6781,"MEAN_ANOMALY":346.4181,"EPHEMERIS_TYPE":0,"CLASSIFICATION_TYPE":"U","NORAD_CAT_ID":64786,"ELEMENT_SET_NO":999,"REV_AT_EPOCH":27910,"BSTAR":0.00022458379,"MEAN_MOTION_DOT":0.00019459,"MEAN_MOTION_DDOT":0},{"OBJECT_NAME":"PROGRESS-MS 32","OBJECT_ID":"2025-204A","EPOCH":"2026-03-24T19:24:53.959968","MEAN_MOTION":15.48525391,"ECCENTRICITY":0.00062584,"INCLINATION":51.6344,"RA_OF_ASC_NODE":357.6177,"ARG_OF_PERICENTER":228.0573,"MEAN_ANOMALY":131.9883,"EPHEMERIS_TYPE":0,"CLASSIFICATION_TYPE":"U","NORAD_CAT_ID":65586,"ELEMENT_SET_NO":999,"REV_AT_EPOCH":55450,"BSTAR":0.00018679893,"MEAN_MOTION_DOT":9.69e-5,"MEAN_MOTION_DDOT":0},{"OBJECT_NAME":"YOTSUBA-KULOVER","OBJECT_ID":"1998-067XN","EPOCH":"2026-03-24T21:46:06.005280","MEAN_MOTION":15.88622502,"ECCENTRICITY":0.00051388,"INCLINATION":51.6191,"RA_OF_ASC_NODE":337.9225,"ARG_OF_PERICENTER":181.9623,"MEAN_ANOMALY":178.1363,"EPHEMERIS_TYPE":0,"CLASSIFICATION_TYPE":"U","NORAD_CAT_ID":65941,"ELEMENT_SET_NO":999,"REV_AT_EPOCH":2591,"BSTAR":0.001039405,"MEAN_MOTION_DOT":0.00308164,"MEAN_MOTION_DDOT":0},{"OBJECT_NAME":"BOTAN","OBJECT_ID":"1998-067XQ","EPOCH":"2026-03-24T23:30:04.470624","MEAN_MOTION":15.87935551,"ECCENTRICITY":0.00057561,"INCLINATION":51.6221,"RA_OF_ASC_NODE":337.6773,"ARG_OF_PERICENTER":181.5007,"MEAN_ANOMALY":178.5981,"EPHEMERIS_TYPE":0,"CLASSIFICATION_TYPE":"U","NORAD_CAT_ID":65943,"ELEMENT_SET_NO":999,"REV_AT_EPOCH":2592,"BSTAR":0.0010166566,"MEAN_MOTION_DOT":0.00290749,"MEAN_MOTION_DDOT":0},{"OBJECT_NAME":"HRC MONOBLOCK CAMERA","OBJECT_ID":"1998-067XR","EPOCH":"2026-03-24T22:00:31.665888","MEAN_MOTION":15.63812263,"ECCENTRICITY":0.00038183,"INCLINATION":51.6288,"RA_OF_ASC_NODE":348.5881,"ARG_OF_PERICENTER":163.0629,"MEAN_ANOMALY":197.0494,"EPHEMERIS_TYPE":0,"CLASSIFICATION_TYPE":"U","NORAD_CAT_ID":66052,"ELEMENT_SET_NO":999,"REV_AT_EPOCH":2477,"BSTAR":0.00043463671,"MEAN_MOTION_DOT":0.00041219,"MEAN_MOTION_DDOT":0},{"OBJECT_NAME":"HTV-X1","OBJECT_ID":"2025-241A","EPOCH":"2026-03-24T23:23:57.515136","MEAN_MOTION":15.32407355,"ECCENTRICITY":0.00073201,"INCLINATION":51.6394,"RA_OF_ASC_NODE":359.4321,"ARG_OF_PERICENTER":230.8154,"MEAN_ANOMALY":129.2178,"EPHEMERIS_TYPE":0,"CLASSIFICATION_TYPE":"U","NORAD_CAT_ID":66174,"ELEMENT_SET_NO":999,"REV_AT_EPOCH":2328,"BSTAR":4.806045e-5,"MEAN_MOTION_DOT":1.155e-5,"MEAN_MOTION_DDOT":0},{"OBJECT_NAME":"SZ-21 MODULE","OBJECT_ID":"2025-246C","EPOCH":"2026-03-24T18:36:44.315424","MEAN_MOTION":15.69693358,"ECCENTRICITY":9.131e-5,"INCLINATION":41.4739,"RA_OF_ASC_NODE":110.4127,"ARG_OF_PERICENTER":210.8046,"MEAN_ANOMALY":149.2742,"EPHEMERIS_TYPE":0,"CLASSIFICATION_TYPE":"U","NORAD_CAT_ID":66515,"ELEMENT_SET_NO":999,"REV_AT_EPOCH":2044,"BSTAR":0.00028129901,"MEAN_MOTION_DOT":0.00034209,"MEAN_MOTION_DDOT":0},{"OBJECT_NAME":"SHENZHOU-22","OBJECT_ID":"2025-272A","EPOCH":"2026-03-24T21:03:54.845568","MEAN_MOTION":15.61442402,"ECCENTRICITY":0.00045652,"INCLINATION":41.4665,"RA_OF_ASC_NODE":115.6921,"ARG_OF_PERICENTER":13.6781,"MEAN_ANOMALY":346.4181,"EPHEMERIS_TYPE":0,"CLASSIFICATION_TYPE":"U","NORAD_CAT_ID":66645,"ELEMENT_SET_NO":999,"REV_AT_EPOCH":27910,"BSTAR":0.00022458379,"MEAN_MOTION_DOT":0.00019459,"MEAN_MOTION_DDOT":0},{"OBJECT_NAME":"SOYUZ-MS 28","OBJECT_ID":"2025-275A","EPOCH":"2026-03-24T19:24:53.959968","MEAN_MOTION":15.48525391,"ECCENTRICITY":0.00062584,"INCLINATION":51.6344,"RA_OF_ASC_NODE":357.6177,"ARG_OF_PERICENTER":228.0573,"MEAN_ANOMALY":131.9883,"EPHEMERIS_TYPE":0,"CLASSIFICATION_TYPE":"U","NORAD_CAT_ID":66664,"ELEMENT_SET_NO":999,"REV_AT_EPOCH":55771,"BSTAR":0.00018679893,"MEAN_MOTION_DOT":9.69e-5,"MEAN_MOTION_DDOT":0}]
