ISS (ZARYA)             
1 25544U 98067A   26083.80895787  .00009690  00000+0  18680-3 0  9990
2 25544  51.6344 357.6177 0006258 228.0573 131.9883 15.48525391558676
POISK                   
1 36086U 09060A   26083.80895787  .00009690  00000+0  18680-3 0  9998
2 36086  51.6344 357.6177 0006258 228.0573 131.9883 15.48525391557432
CSS (TIANHE)            
1 48274U 21035A   26083.87771812  .00019459  00000+0  22458-3 0  9997
2 48274  41.4665 115.6921 0004565  13.6781 346.4181 15.61442402279985
ISS (NAUKA)             
1 49044U 21066A   26083.80895787  .00009690  00000+0  18680-3 0  9996
2 49044  51.6344 357.6177 0006258 228.0573 131.9883 15.48525391557474
FREGAT DEB              
1 49271U 11037PF  26083.51009843  .00011351  00000+0  16086-1 0  9996
2 49271  51.6508 256.2575 0962851  93.4027 277.7281 12.40658271214533
CSS (WENTIAN)           
1 53239U 22085A   26083.87771812  .00019459  00000+0  22458-3 0  9990
2 53239  41.4665 115.6921 0004565  13.6781 346.4181 15.61442402279106
CSS (MENGTIAN)          
1 54216U 22143A   26083.87771812  .00019459  00000+0  22458-3 0  9991
2 54216  41.4665 115.6921 0004565  13.6781 346.4181 15.61442402279102
TIANZHOU-9              
1 64786U 25149A   26083.87771812  .00019459  00000+0  22458-3 0  9993
2 64786  41.4665 115.6921 0004565  13.6781 346.4181 15.61442402279105
PROGRESS-MS 32          
1 65586U 25204A   26083.80895787  .00009690  00000+0  18680-3 0  9993
2 65586  51.6344 357.6177 0006258 228.0573 131.9883 15.48525391554504
YOTSUBA-KULOVER         
1 65941U 98067XN  26083.90701395  .00308164  00000+0  10394-2 0  9998
2 65941  51.6191 337.9225 0005138 181.9623 178.1363 15.88622502 25913
BOTAN                   
1 65943U 98067XQ  26083.97921841  .00290749  00000+0  10167-2 0  9994
2 65943  51.6221 337.6773 0005756 181.5007 178.5981 15.87935551 25923
HRC MONOBLOCK CAMERA    
1 66052U 98067XR  26083.91703317  .00041219  00000+0  43464-3 0  9999
2 66052  51.6288 348.5881 0003818 163.0629 197.0494 15.63812263 24776
HTV-X1                  
1 66174U 25241A   26083.97497124  .00001155  00000+0  48060-4 0  9993
2 66174  51.6394 359.4321 0007320 230.8154 129.2178 15.32407355 23286
SZ-21 MODULE            
1 66515U 25246C   26083.77551291  .00034209  00000+0  28130-3 0  9992
2 66515  41.4739 110.4127 0000913 210.8046 149.2742 15.69693358 20447
SHENZHOU-22             
1 66645U 25272A   26083.87771812  .00019459  00000+0  22458-3 0  9996
2 66645  41.4665 115.6921 0004565  13.6781 346.4181 15.61442402279101
SOYUZ-MS 28             
1 66664U 25275A   26083.80895787  .00009690  00000+0  18680-3 0  9999
2 66664  51.6344 357.6177 0006258 228.0573 131.9883 15.48525391557718
